ONEWEB-0403             
1 50483U 21132Q   25267.09461727  .00000064  00000+0  13028-3 0  9993
2 50483  87.9210  28.2881 0001820  97.5420 262.5919 13.18686123186521
ONEWEB-0404             
1 50484U 21132R   25266.97946739  .00000185  00000+0  48624-3 0  9995
2 50484  87.8789  74.1022 0001965  85.7817 274.3536 13.11420332180800
ONEWEB-0405             
1 50485U 21132S   25267.26122627  .00000101  00000+0  22316-3 0  9999
2 50485  87.9208  28.2403 0001525  90.7739 269.3568 13.18686091186945
ONEWEB-0406             
1 50486U 21132T   25267.32720131  .00000027  00000+0  34683-4 0  9999
2 50486  87.9212  28.2509 0002270 100.1517 259.9871 13.18685521186585
ONEWEB-0407             
1 50487U 21132U   25267.09297218  .00000051  00000+0  95577-4 0  9995
2 50487  87.9210  28.2821 0001524 100.3736 259.7568 13.18686254186492
ONEWEB-0409             
1 50488U 21132V   25266.97777069  .00000076  00000+0  17912-3 0  9992
2 50488  87.8793  74.0625 0001975  92.4923 267.6431 13.11420309180691
ONEWEB-0412             
1 50489U 21132W   25267.30905312  .00000098  00000+0  21704-3 0  9993
2 50489  87.9211  28.2516 0001425  91.5033 268.6263 13.18684771186614
ONEWEB-0413             
1 50490U 21132X   25266.85874699  .00000004  00000+0 -22409-4 0  9999
2 50490  87.9213  28.3579 0001344  97.5792 262.5493 13.18685268186492
